[{"name":"Israel","dial_code":"+972","code":"IL"},
{"name":"Afghanistan","dial_code":"+93","code":"AF"},
{"name":"AmericanSamoa","dial_code":"+1 684","code":"AS"},
{"name":"Australia","dial_code":"+61","code":"AU"},
{"name":"Austria","dial_code":"+43","code":"AT"},
{"name":"Bahamas","dial_code":"+1 242","code":"BS"},
{"name":"Bahrain","dial_code":"+973","code":"BH"},
{"name":"Bangladesh","dial_code":"+880","code":"BD"},
{"name":"Belgium","dial_code":"+32","code":"BE"},
{"name":"Brazil","dial_code":"+55","code":"BR"},
{"name":"British Indian Ocean Territory","dial_code":"+246","code":"IO"},
{"name":"Canada","dial_code":"+1","code":"CA"},
{"name":"Chile","dial_code":"+56","code":"CL"},
{"name":"China","dial_code":"+86","code":"CN"},
{"name":"Colombia","dial_code":"+57","code":"CO"},
{"name":"Cuba","dial_code":"+53","code":"CU"},
{"name":"Czech Republic","dial_code":"+420","code":"CZ"},
{"name":"Denmark","dial_code":"+45","code":"DK"},
{"name":"Egypt","dial_code":"+20","code":"EG"},
{"name":"Fiji","dial_code":"+679","code":"FJ"},
{"name":"Finland","dial_code":"+358","code":"FI"},
{"name":"France","dial_code":"+33","code":"FR"},
{"name":"French Guiana","dial_code":"+594","code":"GF"},
{"name":"French Polynesia","dial_code":"+689","code":"PF"},
{"name":"Georgia","dial_code":"+995","code":"GE"},
{"name":"Germany","dial_code":"+49","code":"DE"},
{"name":"Greenland","dial_code":"+299","code":"GL"},
{"name":"Hungary","dial_code":"+36","code":"HU"},
{"name":"India","dial_code":"+91","code":"IN"},
{"name":"Indonesia","dial_code":"+62","code":"ID"},
{"name":"Iraq","dial_code":"+964","code":"IQ"},
{"name":"Ireland","dial_code":"+353","code":"IE"},
{"name":"Israel","dial_code":"+972","code":"IL"},
{"name":"Italy","dial_code":"+39","code":"IT"},
{"name":"Jamaica","dial_code":"+1 876","code":"JM"},
{"name":"Japan","dial_code":"+81","code":"JP"},
{"name":"Jordan","dial_code":"+962","code":"JO"},
{"name":"Kenya","dial_code":"+254","code":"KE"},
{"name":"Kiribati","dial_code":"+686","code":"KI"},
{"name":"Kuwait","dial_code":"+965","code":"KW"},
{"name":"Malaysia","dial_code":"+60","code":"MY"},
{"name":"Mexico","dial_code":"+52","code":"MX"},
{"name":"Nepal","dial_code":"+977","code":"NP"},
{"name":"Netherlands","dial_code":"+31","code":"NL"},
{"name":"Netherlands Antilles","dial_code":"+599","code":"AN"},
{"name":"New Zealand","dial_code":"+64","code":"NZ"},
{"name":"Norway","dial_code":"+47","code":"NO"},
{"name":"Oman","dial_code":"+968","code":"OM"},
{"name":"Pakistan","dial_code":"+92","code":"PK"},
{"name":"Philippines","dial_code":"+63","code":"PH"},
{"name":"Qatar","dial_code":"+974","code":"QA"},
{"name":"San Marino","dial_code":"+378","code":"SM"},
{"name":"Saudi Arabia","dial_code":"+966","code":"SA"},
{"name":"Serbia","dial_code":"+381","code":"RS"},
{"name":"Singapore","dial_code":"+65","code":"SG"},
{"name":"South Africa","dial_code":"+27","code":"ZA"},
{"name":"Spain","dial_code":"+34","code":"ES"},
{"name":"Sri Lanka","dial_code":"+94","code":"LK"},
{"name":"Swaziland","dial_code":"+268","code":"SZ"},
{"name":"Switzerland","dial_code":"+41","code":"CH"},
{"name":"Thailand","dial_code":"+66","code":"TH"},
{"name":"Turkey","dial_code":"+90","code":"TR"},
{"name":"United Arab Emirates","dial_code":"+971","code":"AE"},
{"name":"United Kingdom","dial_code":"+44","code":"GB"},
{"name":"United States","dial_code":"+1","code":"US"},
{"name":"Hong Kong","dial_code":"+852","code":"HK"},
{"name":"Iran, Islamic Republic of","dial_code":"+98","code":"IR"},
{"name":"Korea, Democratic People's Republic of","dial_code":"+850","code":"KP"},
{"name":"Korea, Republic of","dial_code":"+82","code":"KR"},
{"name":"Russia","dial_code":"+7","code":"RU"},
{"name":"Viet Nam","dial_code":"+84","code":"VN"}]
